{
  "norad_id": 55752,
  "name": "STARLINK-5613",
  "history": [
    {
      "epoch": "2026-03-28T17:12:29.517120Z",
      "apogee_km": 574.3809093126474,
      "perigee_km": 569.7048282969163,
      "latitude_deg": 4.1806779591817065e-05,
      "longitude_deg": 112.08837564859155,
      "height_km": 574.4440116518923,
      "semi_major_axis_km": 6950.179868804782,
      "eccentricity": 0.0003364,
      "inclination_deg": 70.0009,
      "raan_deg": 196.3448,
      "arg_perigee_deg": 270.6549,
      "mean_anomaly_deg": 89.4225,
      "mean_motion_rev_day": 14.98334211
    }
  ]
}