{"fetched_at":"2026-03-29T16:36:15Z","count":15609,"tles":[{"name":"STARLINK-5613","line1":"1 55752U 23028M   26087.71700830  .00000514  00000+0  50886-4 0  9998","line2":"2 55752  70.0009 196.3448 0003364 270.6549  89.4225 14.98334211168894","category":"Starlink"}]}